[
    {
        "Altitude(m)": 622205.8349913949,
        "Argument of Periapsis(deg)": 0.0,
        "Eccentricity": 0.0,
        "Inclination(deg)": 60.0,
        "Latitude(deg)": -52.16234571720672,
        "Longitude(deg)": 62.70048597397329,
        "Mean Anomaly(deg)": -114.5455,
        "RAAN(deg)": 295.00000000000006,
        "Satellite Name": "Test1 1313",
        "Satellite Number": 1313,
        "Semi-Major Axis(m)": 6980739.136638005,
        "Time(s)": 0
    },
    {
        "Altitude(m)": 622344.741289551,
        "Argument of Periapsis(deg)": 0.00010418945913296404,
        "Eccentricity": 0.0,
        "Inclination(deg)": 60.0,
        "Latitude(deg)": -52.51992435295701,
        "Longitude(deg)": 63.48169793187771,
        "Mean Anomaly(deg)": -113.92539385453817,
        "RAAN(deg)": 294.99957995086027,
        "Satellite Name": "Test1 1313",
        "Satellite Number": 1313,
        "Semi-Major Axis(m)": 6980739.136638005,
        "Time(s)": 10
    }
]